NSIGHT-1                
1 42726U 98067MF  17345.93726852  .00006636  00000-0  91803-4 0  9999
2 42726  51.6386 228.9983 0005038 245.6680 114.3786 15.58456407 31177
